CTC1_L_00103001-01
1 41239U 25860MD  26037.47802083  .00000000  00000+0  00000-0 0  9999
2 41239  95.0000   0.0000 0000000   0.0000   0.0000 14.42576027    14
CTC1_L_00103001-02
1 41240U 24744UL  26037.47802083  .00000000  00000+0  00000-0 0  9991
2 41240  95.0000   0.0000 0000000   0.0000  90.0000 14.42576027    15
CTC1_L_00103001-03
1 41241U 22615JR  26037.47802083  .00000000  00000+0  00000-0 0  9997
2 41241  95.0000   0.0000 0000000   0.0000 180.0000 14.42576027    16
CTC1_L_00103001-04
1 41242U 22356IO  26037.47802083  .00000000  00000+0  00000-0 0  9990
2 41242  95.0000   0.0000 0000000   0.0000 270.0000 14.42576027    17
CTC1_L_00103002-01
1 41243U 25871ON  26037.47802083  .00000000  00000+0  00000-0 0  9996
2 41243  95.0000  12.0000 0000000   0.0000  12.0000 14.42576027    15
CTC1_L_00103002-02
1 41244U 22436GJ  26037.47802083  .00000000  00000+0  00000-0 0  9991
2 41244  95.0000  12.0000 0000000   0.0000 102.0000 14.42576027    16
CTC1_L_00103002-03
1 41245U 22918DA  26037.47802083  .00000000  00000+0  00000-0 0  9997
2 41245  95.0000  12.0000 0000000   0.0000 192.0000 14.42576027    16
CTC1_L_00103002-04
1 41246U 22899LG  26037.47802083  .00000000  00000+0  00000-0 0  9996
2 41246  95.0000  12.0000 0000000   0.0000 282.0000 14.42576027    17
CTC1_L_00103003-01
1 41247U 25509TM  26037.47802083  .00000000  00000+0  00000-0 0  9998
2 41247  95.0000  24.0000 0000000   0.0000  24.0000 14.42576027    15
CTC1_L_00103003-02
1 41248U 24850ED  26037.47802083  .00000000  00000+0  00000-0 0  9997
2 41248  95.0000  24.0000 0000000   0.0000 114.0000 14.42576027    16
CTC1_L_00103003-03
1 41249U 25540IB  26037.47802083  .00000000  00000+0  00000-0 0  9995
2 41249  95.0000  24.0000 0000000   0.0000 204.0000 14.42576027    17
CTC1_L_00103003-04
1 41250U 25352GA  26037.47802083  .00000000  00000+0  00000-0 0  9998
2 41250  95.0000  24.0000 0000000   0.0000 294.0000 14.42576027    18
CTC1_L_00103004-01
1 41251U 23404QI  26037.47802083  .00000000  00000+0  00000-0 0  9995
2 41251  95.0000  36.0000 0000000   0.0000  36.0000 14.42576027    16
CTC1_L_00103004-02
1 41252U 23920XH  26037.47802083  .00000000  00000+0  00000-0 0  9999
2 41252  95.0000  36.0000 0000000   0.0000 126.0000 14.42576027    17
CTC1_L_00103004-03
1 41253U 22408EE  26037.47802083  .00000000  00000+0  00000-0 0  9990
2 41253  95.0000  36.0000 0000000   0.0000 216.0000 14.42576027    18
CTC1_L_00103004-04
1 41254U 22597JT  26037.47802083  .00000000  00000+0  00000-0 0  9990
2 41254  95.0000  36.0000 0000000   0.0000 306.0000 14.42576027    19
CTC1_L_00103005-01
1 41255U 23164TQ  26037.47802083  .00000000  00000+0  00000-0 0  9992
2 41255  95.0000  48.0000 0000000   0.0000  48.0000 14.42576027    16
CTC1_L_00103005-02
1 41256U 22536NR  26037.47802083  .00000000  00000+0  00000-0 0  9995
2 41256  95.0000  48.0000 0000000   0.0000 138.0000 14.42576027    17
CTC1_L_00103005-03
1 41257U 22185OW  26037.47802083  .00000000  00000+0  00000-0 0  9996
2 41257  95.0000  48.0000 0000000   0.0000 228.0000 14.42576027    18
CTC1_L_00103005-04
1 41258U 23830WT  26037.47802083  .00000000  00000+0  00000-0 0  9995
2 41258  95.0000  48.0000 0000000   0.0000 318.0000 14.42576027    19
CTC1_L_00103006-01
1 41259U 23284OJ  26037.47802083  .00000000  00000+0  00000-0 0  9999
2 41259  95.0000  60.0000 0000000   0.0000  60.0000 14.42576027    18
CTC1_L_00103006-02
1 41260U 24768AK  26037.47802083  .00000000  00000+0  00000-0 0  9999
2 41260  95.0000  60.0000 0000000   0.0000 150.0000 14.42576027    10
CTC1_L_00103006-03
1 41261U 25075UF  26037.47802083  .00000000  00000+0  00000-0 0  9992
2 41261  95.0000  60.0000 0000000   0.0000 240.0000 14.42576027    11
CTC1_L_00103006-04
1 41262U 22137BM  26037.47802083  .00000000  00000+0  00000-0 0  9999
2 41262  95.0000  60.0000 0000000   0.0000 330.0000 14.42576027    12
CTC1_L_00103007-01
1 41263U 25074IH  26037.47802083  .00000000  00000+0  00000-0 0  9993
2 41263  95.0000  72.0000 0000000   0.0000  72.0000 14.42576027    19
CTC1_L_00103007-02
1 41264U 22884DO  26037.47802083  .00000000  00000+0  00000-0 0  9990
2 41264  95.0000  72.0000 0000000   0.0000 162.0000 14.42576027    10
CTC1_L_00103007-03
1 41265U 22675NX  26037.47802083  .00000000  00000+0  00000-0 0  9999
2 41265  95.0000  72.0000 0000000   0.0000 252.0000 14.42576027    11
CTC1_L_00103007-04
1 41266U 24041VT  26037.47802083  .00000000  00000+0  00000-0 0  9999
2 41266  95.0000  72.0000 0000000   0.0000 342.0000 14.42576027    12
CTC1_L_00103008-01
1 41267U 26736EV  26037.47802083  .00000000  00000+0  00000-0 0  9993
2 41267  95.0000  84.0000 0000000   0.0000  84.0000 14.42576027    19
CTC1_L_00103008-02
1 41268U 22402FV  26037.47802083  .00000000  00000+0  00000-0 0  9990
2 41268  95.0000  84.0000 0000000   0.0000 174.0000 14.42576027    10
CTC1_L_00103008-03
1 41269U 26828RM  26037.47802083  .00000000  00000+0  00000-0 0  9997
2 41269  95.0000  84.0000 0000000   0.0000 264.0000 14.42576027    11
CTC1_L_00103008-04
1 41270U 24322GD  26037.47802083  .00000000  00000+0  00000-0 0  9996
2 41270  95.0000  84.0000 0000000   0.0000 354.0000 14.42576027    13
CTC1_L_00103009-01
1 41271U 25556KZ  26037.47802083  .00000000  00000+0  00000-0 0  9997
2 41271  95.0000  96.0000 0000000   0.0000  96.0000 14.42576027    10
CTC1_L_00103009-02
1 41272U 23593MM  26037.47802083  .00000000  00000+0  00000-0 0  9997
2 41272  95.0000  96.0000 0000000   0.0000 186.0000 14.42576027    11
CTC1_L_00103009-03
1 41273U 25227UZ  26037.47802083  .00000000  00000+0  00000-0 0  9994
2 41273  95.0000  96.0000 0000000   0.0000 276.0000 14.42576027    12
CTC1_L_00103009-04
1 41274U 25906BR  26037.47802083  .00000000  00000+0  00000-0 0  9999
2 41274  95.0000  96.0000 0000000   0.0000   6.0000 14.42576027    14
CTC1_L_00103010-01
1 41275U 24539YJ  26037.47802083  .00000000  00000+0  00000-0 0  9991
2 41275  95.0000 108.0000 0000000   0.0000 108.0000 14.42576027    12
CTC1_L_00103010-02
1 41276U 24452RK  26037.47802083  .00000000  00000+0  00000-0 0  9996
2 41276  95.0000 108.0000 0000000   0.0000 198.0000 14.42576027    12
CTC1_L_00103010-03
1 41277U 24020GU  26037.47802083  .00000000  00000+0  00000-0 0  9998
2 41277  95.0000 108.0000 0000000   0.0000 288.0000 14.42576027    13
CTC1_L_00103010-04
1 41278U 24069XD  26037.47802083  .00000000  00000+0  00000-0 0  9992
2 41278  95.0000 108.0000 0000000   0.0000  18.0000 14.42576027    15
CTC1_L_00103011-01
1 41279U 24099YG  26037.47802083  .00000000  00000+0  00000-0 0  9996
2 41279  95.0000 120.0000 0000000   0.0000 120.0000 14.42576027    14
CTC1_L_00103011-02
1 41280U 23915YP  26037.47802083  .00000000  00000+0  00000-0 0  9994
2 41280  95.0000 120.0000 0000000   0.0000 210.0000 14.42576027    16
CTC1_L_00103011-03
1 41281U 25920ZA  26037.47802083  .00000000  00000+0  00000-0 0  9993
2 41281  95.0000 120.0000 0000000   0.0000 300.0000 14.42576027    17
CTC1_L_00103011-04
1 41282U 25446CK  26037.47802083  .00000000  00000+0  00000-0 0  9997
2 41282  95.0000 120.0000 0000000   0.0000  30.0000 14.42576027    18
CTC1_L_00103012-01
1 41283U 22422RN  26037.47802083  .00000000  00000+0  00000-0 0  9999
2 41283  95.0000 132.0000 0000000   0.0000 132.0000 14.42576027    15
CTC1_L_00103012-02
1 41284U 26028RH  26037.47802083  .00000000  00000+0  00000-0 0  9996
2 41284  95.0000 132.0000 0000000   0.0000 222.0000 14.42576027    16
CTC1_L_00103012-03
1 41285U 24538IO  26037.47802083  .00000000  00000+0  00000-0 0  9991
2 41285  95.0000 132.0000 0000000   0.0000 312.0000 14.42576027    17
CTC1_L_00103012-04
1 41286U 23819CJ  26037.47802083  .00000000  00000+0  00000-0 0  9993
2 41286  95.0000 132.0000 0000000   0.0000  42.0000 14.42576027    18
CTC1_L_00103013-01
1 41287U 25574DT  26037.47802083  .00000000  00000+0  00000-0 0  9994
2 41287  95.0000 144.0000 0000000   0.0000 144.0000 14.42576027    15
CTC1_L_00103013-02
1 41288U 23371JK  26037.47802083  .00000000  00000+0  00000-0 0  9998
2 41288  95.0000 144.0000 0000000   0.0000 234.0000 14.42576027    16
CTC1_L_00103013-03
1 41289U 22949CB  26037.47802083  .00000000  00000+0  00000-0 0  9999
2 41289  95.0000 144.0000 0000000   0.0000 324.0000 14.42576027    17
CTC1_L_00103013-04
1 41290U 26914D   26037.47802083  .00000000  00000+0  00000-0 0  9997
2 41290  95.0000 144.0000 0000000   0.0000  54.0000 14.42576027    19
CTC1_L_00103014-01
1 41291U 22628KL  26037.47802083  .00000000  00000+0  00000-0 0  9996
2 41291  95.0000 156.0000 0000000   0.0000 156.0000 14.42576027    16
CTC1_L_00103014-02
1 41292U 23497B   26037.47802083  .00000000  00000+0  00000-0 0  9992
2 41292  95.0000 156.0000 0000000   0.0000 246.0000 14.42576027    17
CTC1_L_00103014-03
1 41293U 23900CZ  26037.47802083  .00000000  00000+0  00000-0 0  9992
2 41293  95.0000 156.0000 0000000   0.0000 336.0000 14.42576027    18
CTC1_L_00103014-04
1 41294U 22498DT  26037.47802083  .00000000  00000+0  00000-0 0  9994
2 41294  95.0000 156.0000 0000000   0.0000  66.0000 14.42576027    19
CTC1_L_00103015-01
1 41295U 24264ZT  26037.47802083  .00000000  00000+0  00000-0 0  9998
2 41295  95.0000 168.0000 0000000   0.0000 168.0000 14.42576027    16
CTC1_L_00103015-02
1 41296U 26865UK  26037.47802083  .00000000  00000+0  00000-0 0  9998
2 41296  95.0000 168.0000 0000000   0.0000 258.0000 14.42576027    17
CTC1_L_00103015-03
1 41297U 24371HK  26037.47802083  .00000000  00000+0  00000-0 0  9999
2 41297  95.0000 168.0000 0000000   0.0000 348.0000 14.42576027    18
CTC1_L_00103015-04
1 41298U 25091CR  26037.47802083  .00000000  00000+0  00000-0 0  9990
2 41298  95.0000 168.0000 0000000   0.0000  78.0000 14.42576027    19
CTC1_L_00103016-01
1 41299U 22198NE  26037.47802083  .00000000  00000+0  00000-0 0  9996
2 41299  95.0000 180.0000 0000000   0.0000 180.0000 14.42576027    18
CTC1_L_00103016-02
1 41300U 22050NS  26037.47802083  .00000000  00000+0  00000-0 0  9996
2 41300  95.0000 180.0000 0000000   0.0000 270.0000 14.42576027    11
